start=new Date('2022-02-06T00:00:00.000Z').valueOf();
sats=[{"TLE_LINE2":"2 50835  53.2148  52.1327 0001458  30.3819 329.7284 15.70140537  4718","ECCENTRICITY":"0.00014580","EPHEMERIS_TYPE":"0","PERIOD":"91.712","CENTER_NAME":"EARTH","SITE":"AFETR","APOAPSIS":"359.479","SEMIMAJOR_AXIS":"6736.632","ARG_OF_PERICENTER":"30.3819","OBJECT_NAME":"STARLINK-3310","COUNTRY_CODE":"US","REV_AT_EPOCH":"471","RCS_SIZE":"LARGE","TLE_LINE1":"1 50835U 22001AJ  22036.58408821 -.00211256  00000-0 -17518-2 0  9998","TIME_SYSTEM":"UTC","RA_OF_ASC_NODE":"52.1327","MEAN_ANOMALY":"329.7284","REF_FRAME":"TEME","MEAN_MOTION_DDOT":"0.0000000000000","FILE":"3292709","INCLINATION":"53.2148","NORAD_CAT_ID":"50835","MEAN_MOTION_DOT":"-0.00211256","LAUNCH_DATE":"2022-01-06","GP_ID":"195371206","EPOCH":"2022-02-05T14:01:05.221344","MEAN_ELEMENT_THEORY":"SGP4","BSTAR":"-0.00175180000000","CLASSIFICATION_TYPE":"U","MEAN_MOTION":"15.70140537","PERIAPSIS":"357.515","ELEMENT_SET_NO":"999","OBJECT_ID":"2022-001AJ","OBJECT_TYPE":"PAYLOAD","DECAY_DATE":null},{"COUNTRY_CODE":"US","REV_AT_EPOCH":"601","RCS_SIZE":"LARGE","TLE_LINE1":"1 50836U 22001AK  22036.91668981 -.00660887  00000-0 -55420-2 0  9993","TIME_SYSTEM":"UTC","MEAN_ANOMALY":"63.2950","RA_OF_ASC_NODE":"50.4858","REF_FRAME":"TEME","MEAN_MOTION_DDOT":"0.0000000000000","ECCENTRICITY":"0.00017230","TLE_LINE2":"2 50836  53.2174  50.4858 0001723  29.1615  63.2950 15.71185731  6014","PERIOD":"91.651","EPHEMERIS_TYPE":"0","SITE":"AFETR","CENTER_NAME":"EARTH","ARG_OF_PERICENTER":"29.1615","SEMIMAJOR_AXIS":"6733.644","APOAPSIS":"356.669","OBJECT_NAME":"STARLINK-3330","MEAN_MOTION":"15.71185731","PERIAPSIS":"354.349","ELEMENT_SET_NO":"999","DECAY_DATE":null,"OBJECT_ID":"2022-001AK","OBJECT_TYPE":"PAYLOAD","INCLINATION":"53.2174","FILE":"3292944","NORAD_CAT_ID":"50836","MEAN_MOTION_DOT":"-0.00660887","LAUNCH_DATE":"2022-01-06","EPOCH":"2022-02-05T22:00:01.999584","GP_ID":"195377433","BSTAR":"-0.00554200000000","MEAN_ELEMENT_THEORY":"SGP4","CLASSIFICATION_TYPE":"U"},{"REV_AT_EPOCH":"596","COUNTRY_CODE":"US","TLE_LINE1":"1 50837U 22001AL  22036.91668981 -.00044539  00000-0 -31476-3 0  9990","RCS_SIZE":"LARGE","TIME_SYSTEM":"UTC","REF_FRAME":"TEME","MEAN_MOTION_DDOT":"0.0000000000000","MEAN_ANOMALY":"65.3643","RA_OF_ASC_NODE":"50.4689","ECCENTRICITY":"0.00016250","TLE_LINE2":"2 50837  53.2151  50.4689 0001625  27.5496  65.3643 15.73187610  5967","SITE":"AFETR","CENTER_NAME":"EARTH","EPHEMERIS_TYPE":"0","PERIOD":"91.534","ARG_OF_PERICENTER":"27.5496","SEMIMAJOR_AXIS":"6727.930","APOAPSIS":"350.889","OBJECT_NAME":"STARLINK-3318","PERIAPSIS":"348.702","MEAN_MOTION":"15.73187610","ELEMENT_SET_NO":"999","DECAY_DATE":null,"OBJECT_TYPE":"PAYLOAD","OBJECT_ID":"2022-001AL","NORAD_CAT_ID":"50837","INCLINATION":"53.2151","FILE":"3292944","LAUNCH_DATE":"2022-01-06","MEAN_MOTION_DOT":"-0.00044539","EPOCH":"2022-02-05T22:00:01.999584","GP_ID":"195377731","CLASSIFICATION_TYPE":"U","BSTAR":"-0.00031476000000","MEAN_ELEMENT_THEORY":"SGP4"},{"OBJECT_NAME":"STARLINK-3322","SEMIMAJOR_AXIS":"6736.851","ARG_OF_PERICENTER":"35.3545","APOAPSIS":"359.750","PERIOD":"91.716","EPHEMERIS_TYPE":"0","CENTER_NAME":"EARTH","SITE":"AFETR","ECCENTRICITY":"0.00015350","TLE_LINE2":"2 50838  53.2173  50.4747 0001535  35.3545  55.3942 15.70063884  5963","MEAN_ANOMALY":"55.3942","RA_OF_ASC_NODE":"50.4747","MEAN_MOTION_DDOT":"0.0000000000000","REF_FRAME":"TEME","TIME_SYSTEM":"UTC","RCS_SIZE":"LARGE","TLE_LINE1":"1 50838U 22001AM  22036.91668981 -.00660602  00000-0 -58078-2 0  9992","COUNTRY_CODE":"US","REV_AT_EPOCH":"596","BSTAR":"-0.00580780000000","MEAN_ELEMENT_THEORY":"SGP4","CLASSIFICATION_TYPE":"U","EPOCH":"2022-02-05T22:00:01.999584","GP_ID":"195377429","MEAN_MOTION_DOT":"-0.00660602","LAUNCH_DATE":"2022-01-06","FILE":"3292944","INCLINATION":"53.2173","NORAD_CAT_ID":"50838","DECAY_DATE":null,"OBJECT_ID":"2022-001AM","OBJECT_TYPE":"PAYLOAD","ELEMENT_SET_NO":"999","MEAN_MOTION":"15.70063884","PERIAPSIS":"357.682"},{"COUNTRY_CODE":"US","REV_AT_EPOCH":"598","RCS_SIZE":"LARGE","TLE_LINE1":"1 50839U 22001AN  22036.58334491 -.00656415  00000-0 -57415-2 0  9993","TIME_SYSTEM":"UTC","RA_OF_ASC_NODE":"52.1220","MEAN_ANOMALY":"346.7314","REF_FRAME":"TEME","MEAN_MOTION_DDOT":"0.0000000000000","TLE_LINE2":"2 50839  53.2171  52.1220 0000887  14.0243 346.7314 15.70178527  5988","ECCENTRICITY":"0.00008870","EPHEMERIS_TYPE":"0","PERIOD":"91.709","CENTER_NAME":"EARTH","SITE":"AFETR","APOAPSIS":"358.986","ARG_OF_PERICENTER":"14.0243","SEMIMAJOR_AXIS":"6736.523","OBJECT_NAME":"STARLINK-3320","MEAN_MOTION":"15.70178527","PERIAPSIS":"357.791","ELEMENT_SET_NO":"999","OBJECT_ID":"2022-001AN","OBJECT_TYPE":"PAYLOAD","DECAY_DATE":null,"FILE":"3292657","INCLINATION":"53.2171","NORAD_CAT_ID":"50839","MEAN_MOTION_DOT":"-0.00656415","LAUNCH_DATE":"2022-01-06","GP_ID":"195345349","EPOCH":"2022-02-05T14:00:01.000224","MEAN_ELEMENT_THEORY":"SGP4","BSTAR":"-0.00574150000000","CLASSIFICATION_TYPE":"U"},{"CLASSIFICATION_TYPE":"U","BSTAR":"-0.00575560000000","MEAN_ELEMENT_THEORY":"SGP4","EPOCH":"2022-02-05T14:00:01.000224","GP_ID":"195345868","LAUNCH_DATE":"2022-01-06","MEAN_MOTION_DOT":"-0.00661031","NORAD_CAT_ID":"50840","FILE":"3292658","INCLINATION":"53.2171","DECAY_DATE":null,"OBJECT_ID":"2022-001AP","OBJECT_TYPE":"PAYLOAD","ELEMENT_SET_NO":"999","PERIAPSIS":"357.198","MEAN_MOTION":"15.70297823","OBJECT_NAME":"STARLINK-3295","ARG_OF_PERICENTER":"46.2354","SEMIMAJOR_AXIS":"6736.182","APOAPSIS":"358.897","CENTER_NAME":"EARTH","SITE":"AFETR","EPHEMERIS_TYPE":"0","PERIOD":"91.702","ECCENTRICITY":"0.00012610","TLE_LINE2":"2 50840  53.2171  52.1212 0001261  46.2354 316.0512 15.70297823  5989","REF_FRAME":"TEME","MEAN_MOTION_DDOT":"0.0000000000000","MEAN_ANOMALY":"316.0512","RA_OF_ASC_NODE":"52.1212","TIME_SYSTEM":"UTC","TLE_LINE1":"1 50840U 22001AP  22036.58334491 -.00661031  00000-0 -57556-2 0  9991","RCS_SIZE":"LARGE","REV_AT_EPOCH":"598","COUNTRY_CODE":"US"},{"TLE_LINE2":"2 50841  53.2171  52.1233 0001259  45.5453 312.0403 15.69946995  6011","ECCENTRICITY":"0.00012590","EPHEMERIS_TYPE":"0","PERIOD":"91.723","CENTER_NAME":"EARTH","SITE":"AFETR","APOAPSIS":"359.899","SEMIMAJOR_AXIS":"6737.186","ARG_OF_PERICENTER":"45.5453","OBJECT_NAME":"STARLINK-3300","COUNTRY_CODE":"US","REV_AT_EPOCH":"601","RCS_SIZE":"LARGE","TLE_LINE1":"1 50841U 22001AQ  22036.58334491 -.00660917  00000-0 -58398-2 0  9999","TIME_SYSTEM":"UTC","RA_OF_ASC_NODE":"52.1233","MEAN_ANOMALY":"312.0403","MEAN_MOTION_DDOT":"0.0000000000000","REF_FRAME":"TEME","FILE":"3292658","INCLINATION":"53.2171","NORAD_CAT_ID":"50841","MEAN_MOTION_DOT":"-0.00660917","LAUNCH_DATE":"2022-01-06","GP_ID":"195345359","EPOCH":"2022-02-05T14:00:01.000224","MEAN_ELEMENT_THEORY":"SGP4","BSTAR":"-0.00583980000000","CLASSIFICATION_TYPE":"U","MEAN_MOTION":"15.69946995","PERIAPSIS":"358.202","ELEMENT_SET_NO":"999","OBJECT_ID":"2022-001AQ","OBJECT_TYPE":"PAYLOAD","DECAY_DATE":null},{"COUNTRY_CODE":"US","REV_AT_EPOCH":"370","RCS_SIZE":"LARGE","TLE_LINE1":"1 50842U 22001AR  22036.58334491 -.00661094  00000-0 -57277-2 0  9992","TIME_SYSTEM":"UTC","MEAN_ANOMALY":"325.5866","RA_OF_ASC_NODE":"52.1203","MEAN_MOTION_DDOT":"0.0000000000000","REF_FRAME":"TEME","ECCENTRICITY":"0.00014180","TLE_LINE2":"2 50842  53.2171  52.1203 0001418  38.1967 325.5866 15.70414765  3706","PERIOD":"91.696","EPHEMERIS_TYPE":"0","CENTER_NAME":"EARTH","SITE":"AFETR","SEMIMAJOR_AXIS":"6735.848","ARG_OF_PERICENTER":"38.1967","APOAPSIS":"358.668","OBJECT_NAME":"STARLINK-3302","MEAN_MOTION":"15.70414765","PERIAPSIS":"356.758","ELEMENT_SET_NO":"999","DECAY_DATE":null,"OBJECT_ID":"2022-001AR","OBJECT_TYPE":"PAYLOAD","FILE":"3292709","INCLINATION":"53.2171","NORAD_CAT_ID":"50842","MEAN_MOTION_DOT":"-0.00661094","LAUNCH_DATE":"2022-01-06","EPOCH":"2022-02-05T14:00:01.000224","GP_ID":"195371597","BSTAR":"-0.00572770000000","MEAN_ELEMENT_THEORY":"SGP4","CLASSIFICATION_TYPE":"U"},{"OBJECT_NAME":"STARLINK-3325","SEMIMAJOR_AXIS":"6739.194","ARG_OF_PERICENTER":"31.7676","APOAPSIS":"362.150","CENTER_NAME":"EARTH","SITE":"AFETR","EPHEMERIS_TYPE":"0","PERIOD":"91.764","ECCENTRICITY":"0.00016190","TLE_LINE2":"2 50843  53.2172  50.4796 0001619  31.7676  47.0297 15.69245170  5969","REF_FRAME":"TEME","MEAN_MOTION_DDOT":"0.0000000000000","MEAN_ANOMALY":"47.0297","RA_OF_ASC_NODE":"50.4796","TIME_SYSTEM":"UTC","TLE_LINE1":"1 50843U 22001AS  22036.91668981 -.00660325  00000-0 -60069-2 0  9993","RCS_SIZE":"LARGE","REV_AT_EPOCH":"596","COUNTRY_CODE":"US","CLASSIFICATION_TYPE":"U","BSTAR":"-0.00600690000000","MEAN_ELEMENT_THEORY":"SGP4","EPOCH":"2022-02-05T22:00:01.999584","GP_ID":"195377757","LAUNCH_DATE":"2022-01-06","MEAN_MOTION_DOT":"-0.00660325","NORAD_CAT_ID":"50843","INCLINATION":"53.2172","FILE":"3292946","DECAY_DATE":null,"OBJECT_TYPE":"PAYLOAD","OBJECT_ID":"2022-001AS","ELEMENT_SET_NO":"999","PERIAPSIS":"359.968","MEAN_MOTION":"15.69245170"},{"EPOCH":"2022-02-05T22:00:01.999584","GP_ID":"195377775","CLASSIFICATION_TYPE":"U","BSTAR":"-0.00575220000000","MEAN_ELEMENT_THEORY":"SGP4","NORAD_CAT_ID":"50844","INCLINATION":"53.2173","FILE":"3292947","LAUNCH_DATE":"2022-01-06","MEAN_MOTION_DOT":"-0.00660725","DECAY_DATE":null,"OBJECT_ID":"2022-001AT","OBJECT_TYPE":"PAYLOAD","PERIAPSIS":"357.002","MEAN_MOTION":"15.70297856","ELEMENT_SET_NO":"999","ARG_OF_PERICENTER":"35.6795","SEMIMAJOR_AXIS":"6736.182","APOAPSIS":"359.093","OBJECT_NAME":"STARLINK-3326","ECCENTRICITY":"0.00015520","TLE_LINE2":"2 50844  53.2173  50.4726 0001552  35.6795  58.1676 15.70297856  6049","CENTER_NAME":"EARTH","SITE":"AFETR","PERIOD":"91.702","EPHEMERIS_TYPE":"0","TIME_SYSTEM":"UTC","REF_FRAME":"TEME","MEAN_MOTION_DDOT":"0.0000000000000","MEAN_ANOMALY":"58.1676","RA_OF_ASC_NODE":"50.4726","REV_AT_EPOCH":"604","COUNTRY_CODE":"US","TLE_LINE1":"1 50844U 22001AT  22036.91668981 -.00660725  00000-0 -57522-2 0  9998","RCS_SIZE":"LARGE"}];
